0 THOR ABLESTAR DEB
1 00545U 61015GE  13280.99282510  .00000216  00000-0  30581-3 0  2629
2 00545 067.2343 196.7488 0165936 302.2027 146.6985 13.67791309596353
0 THOR ABLESTAR DEB
1 00545U 61015GE  13283.20198512  .00000180  00000-0  26741-3 0  2638
2 00545 067.2342 191.6505 0165942 300.6012 224.6494 13.67793189596652
0 THOR ABLESTAR DEB
1 00545U 61015GE  13285.38540630  .00000198  00000-0  28661-3 0  2644
2 00545 067.2340 186.6113 0165931 299.0228 175.8738 13.67794169596957
0 THOR ABLESTAR DEB
1 00545U 61015GE  13287.78667031  .00000273  00000-0  36704-3 0  2657
2 00545 067.2338 181.0703 0165906 297.2904 119.7652 13.67795535597288
0 THOR ABLESTAR DEB
1 00545U 61015GE  13289.83747970  .00000290  00000-0  38565-3 0  2663
2 00545 067.2335 176.3376 0165879 295.8035 138.0306 13.67797826597562
0 THOR ABLESTAR DEB
1 00545U 61015GE  13292.12283652  .00000260  00000-0  35349-3 0  2676
2 00545 067.2332 171.0636 0165850 294.1464 231.2310 13.67799194597872
0 THOR ABLESTAR DEB
1 00545U 61015GE  13294.15245641  .00000313  00000-0  40981-3 0  2685
2 00545 067.2331 166.3797 0165827 292.6741 145.1855 13.67801264598152
